0 DELTA 1 DEB
1 10306U 77065DC  13282.42827184  .00001027  00000-0  26096-3 0  6642
2 10306 029.1047 344.6665 0723701 022.5092 340.5626 13.50981290761119
0 DELTA 1 DEB
1 10306U 77065DC  13285.38463847  .00000890  00000-0  22356-3 0  6655
2 10306 029.1045 329.5087 0723756 046.9181 318.9706 13.50986149761516
0 DELTA 1 DEB
1 10306U 77065DC  13288.11909767  .00001502  00000-0  39332-3 0  6669
2 10306 029.1044 315.4895 0723768 069.4893 298.1812 13.50993605761881
0 DELTA 1 DEB
1 10306U 77065DC  13290.26215574  .00001188  00000-0  30564-3 0  6673
2 10306 029.1045 304.5010 0723693 087.1928 281.1167 13.50998542762176
0 DELTA 1 DEB
1 10306U 77065DC  13293.07004740  .00001226  00000-0  31492-3 0  6681
2 10306 029.1050 290.1038 0723577 110.3872 257.5869 13.51003123762551
0 DELTA 1 DEB
1 10306U 77065DC  13295.13883550  .00001192  00000-0  30420-3 0  6697
2 10306 029.1057 279.4960 0723514 127.4843 239.3752 13.51007631762838
